{"type": "FeatureCollection", "features": [ {"type": "Feature", "properties": {"norad_id": 35465, "name": "COSMOS 2251 DEB", "group": "cosmos-2251-debris", "lat": -63.920302039348684, "lon": 48.393064892272534, "alt_km": 761.1979866790243, "timestamp": "2025-12-15T04:01:20.848275+00:00", "meta": {"OBJECT_NAME": "COSMOS 2251 DEB", "OBJECT_ID": "1993-036ALK", "EPOCH": "2025-12-14T06:55:15.434976", "MEAN_MOTION": 14.44324437, "ECCENTRICITY": 0.00641475, "INCLINATION": 73.9983, "RA_OF_ASC_NODE": 194.1379, "ARG_OF_PERICENTER": 354.0798, "MEAN_ANOMALY": 5.9592, "EPHEMERIS_TYPE": 0, "CLASSIFICATION_TYPE": "U", "NORAD_CAT_ID": 35465, "ELEMENT_SET_NO": 999, "REV_AT_EPOCH": 87264, "BSTAR": 0.00045193866, "MEAN_MOTION_DOT": 1.567e-05, "MEAN_MOTION_DDOT": 0}, "tle": {"line1": "1 35465U 93036ALK 25348.28837309  .00001567  00000+0  45194-3 0  9990", "line2": "2 35465  73.9983 194.1379 0064147 354.0798   5.9592 14.44324437872649"}}, "geometry": {"type": "Point", "coordinates": [48.393064892272534, -63.920302039348684]}}, {"type": "Feature", "properties": {"norad_id": 35469, "name": "COSMOS 2251 DEB", "group": "cosmos-2251-debris", "lat": 44.19744839599096, "lon": -176.87456175413703, "alt_km": 680.5011812598295, "timestamp": "2025-12-15T04:01:20.848285+00:00", "meta": {"OBJECT_NAME": "COSMOS 2251 DEB", "OBJECT_ID": "1993-036ALP", "EPOCH": "2025-12-13T19:56:30.477984", "MEAN_MOTION": 14.49820874, "ECCENTRICITY": 0.00768963, "INCLINATION": 74.0172, "RA_OF_ASC_NODE": 21.8189, "ARG_OF_PERICENTER": 176.9201, "MEAN_ANOMALY": 183.2449, "EPHEMERIS_TYPE": 0, "CLASSIFICATION_TYPE": "U", "NORAD_CAT_ID": 35469, "ELEMENT_SET_NO": 999, "REV_AT_EPOCH": 88127, "BSTAR": 0.00014014105, "MEAN_MOTION_DOT": 5.32e-06, "MEAN_MOTION_DDOT": 0}, "tle": {"line1": "1 35469U 93036ALP 25347.83090831  .00000532  00000+0  14014-3 0  9993", "line2": "2 35469  74.0172  21.8189 0076896 176.9201 183.2449 14.49820874881275"}}, "geometry": {"type": "Point", "coordinates": [-176.87456175413703, 44.19744839599096]}}, {"type": "Feature", "properties": {"norad_id": 35475, "name": "COSMOS 2251 DEB", "group": "cosmos-2251-debris", "lat": 17.980973875535035, "lon": -24.42034095631024, "alt_km": 657.3656328800271, "timestamp": "2025-12-15T04:01:20.848295+00:00", "meta": {"OBJECT_NAME": "COSMOS 2251 DEB", "OBJECT_ID": "1993-036ALV", "EPOCH": "2025-12-14T04:25:11.395488", "MEAN_MOTION": 14.69774058, "ECCENTRICITY": 0.0020539, "INCLINATION": 74.0214, "RA_OF_ASC_NODE": 162.8225, "ARG_OF_PERICENTER": 235.731, "MEAN_ANOMALY": 124.1916, "EPHEMERIS_TYPE": 0, "CLASSIFICATION_TYPE": "U", "NORAD_CAT_ID": 35475, "ELEMENT_SET_NO": 999, "REV_AT_EPOCH": 65638, "BSTAR": 0.0019505766, "MEAN_MOTION_DOT": 0.00011664, "MEAN_MOTION_DDOT": 0}, "tle": {"line1": "1 35475U 93036ALV 25348.18415967  .00011664  00000+0  19506-2 0  9998", "line2": "2 35475  74.0214 162.8225 0020539 235.7310 124.1916 14.69774058656383"}}, "geometry": {"type": "Point", "coordinates": [-24.42034095631024, 17.980973875535035]}}, {"type": "Feature", "properties": {"norad_id": 35476, "name": "COSMOS 2251 DEB", "group": "cosmos-2251-debris", "lat": 55.852590591315064, "lon": 81.21063151313025, "alt_km": 626.114278661561, "timestamp": "2025-12-15T04:01:20.848305+00:00", "meta": {"OBJECT_NAME": "COSMOS 2251 DEB", "OBJECT_ID": "1993-036ALW", "EPOCH": "2025-12-14T06:53:32.122176", "MEAN_MOTION": 14.75725923, "ECCENTRICITY": 0.00173753, "INCLINATION": 73.9818, "RA_OF_ASC_NODE": 57.8787, "ARG_OF_PERICENTER": 35.6424, "MEAN_ANOMALY": 28.3147, "EPHEMERIS_TYPE": 0, "CLASSIFICATION_TYPE": "U", "NORAD_CAT_ID": 35476, "ELEMENT_SET_NO": 999, "REV_AT_EPOCH": 87910, "BSTAR": 0.0017132089, "MEAN_MOTION_DOT": 0.00011738, "MEAN_MOTION_DDOT": 0}, "tle": {"line1": "1 35476U 93036ALW 25348.28717734  .00011738  00000+0  17132-2 0  9992", "line2": "2 35476  73.9818  57.8787 0017375  35.6424  28.3147 14.75725923879107"}}, "geometry": {"type": "Point", "coordinates": [81.21063151313025, 55.852590591315064]}}, {"type": "Feature", "properties": {"norad_id": 35580, "name": "COSMOS 2251 DEB", "group": "cosmos-2251-debris", "lat": 67.34594429121697, "lon": -141.6214758213819, "alt_km": 992.7806557099566, "timestamp": "2025-12-15T04:01:20.848315+00:00", "meta": {"OBJECT_NAME": "COSMOS 2251 DEB", "OBJECT_ID": "1993-036ALX", "EPOCH": "2025-12-10T21:17:20.461632", "MEAN_MOTION": 13.83850084, "ECCENTRICITY": 0.0281508, "INCLINATION": 73.9016, "RA_OF_ASC_NODE": 181.8733, "ARG_OF_PERICENTER": 187.4326, "MEAN_ANOMALY": 172.2587, "EPHEMERIS_TYPE": 0, "CLASSIFICATION_TYPE": "U", "NORAD_CAT_ID": 35580, "ELEMENT_SET_NO": 999, "REV_AT_EPOCH": 62231, "BSTAR": 0.0026077, "MEAN_MOTION_DOT": 3.904e-05, "MEAN_MOTION_DDOT": 0}, "tle": {"line1": "1 35580U 93036ALX 25344.88704238  .00003904  00000+0  26077-2 0  9999", "line2": "2 35580  73.9016 181.8733 0281508 187.4326 172.2587 13.83850084622311"}}, "geometry": {"type": "Point", "coordinates": [-141.6214758213819, 67.34594429121697]}}, {"type": "Feature", "properties": {"norad_id": 35583, "name": "COSMOS 2251 DEB", "group": "cosmos-2251-debris", "lat": -60.3853428892968, "lon": 58.58226762512568, "alt_km": 779.5965304456777, "timestamp": "2025-12-15T04:01:20.848325+00:00", "meta": {"OBJECT_NAME": "COSMOS 2251 DEB", "OBJECT_ID": "1993-036AMA", "EPOCH": "2025-12-14T07:19:11.532576", "MEAN_MOTION": 13.55338533, "ECCENTRICITY": 0.0385394, "INCLINATION": 73.9165, "RA_OF_ASC_NODE": 209.4795, "ARG_OF_PERICENTER": 233.5423, "MEAN_ANOMALY": 122.9594, "EPHEMERIS_TYPE": 0, "CLASSIFICATION_TYPE": "U", "NORAD_CAT_ID": 35583, "ELEMENT_SET_NO": 999, "REV_AT_EPOCH": 82433, "BSTAR": 0.00090318033, "MEAN_MOTION_DOT": 9.83e-06, "MEAN_MOTION_DDOT": 0}, "tle": {"line1": "1 35583U 93036AMA 25348.30499459  .00000983  00000+0  90318-3 0  9993", "line2": "2 35583  73.9165 209.4795 0385394 233.5423 122.9594 13.55338533824338"}}, "geometry": {"type": "Point", "coordinates": [58.58226762512568, -60.3853428892968]}}, {"type": "Feature", "properties": {"norad_id": 35585, "name": "COSMOS 2251 DEB", "group": "cosmos-2251-debris", "lat": 14.743715743113826, "lon": -11.303267625767234, "alt_km": 1087.6692413696728, "timestamp": "2025-12-15T04:01:20.848335+00:00", "meta": {"OBJECT_NAME": "COSMOS 2251 DEB", "OBJECT_ID": "1993-036AMC", "EPOCH": "2025-12-14T07:05:12.164352", "MEAN_MOTION": 13.75254239, "ECCENTRICITY": 0.03105325, "INCLINATION": 73.9727, "RA_OF_ASC_NODE": 345.8143, "ARG_OF_PERICENTER": 257.7629, "MEAN_ANOMALY": 117.3934, "EPHEMERIS_TYPE": 0, "CLASSIFICATION_TYPE": "U", "NORAD_CAT_ID": 35585, "ELEMENT_SET_NO": 999, "REV_AT_EPOCH": 64085, "BSTAR": 0.0013108564, "MEAN_MOTION_DOT": 1.761e-05, "MEAN_MOTION_DDOT": 0}, "tle": {"line1": "1 35585U 93036AMC 25348.29527968  .00001761  00000+0  13109-2 0  9997", "line2": "2 35585  73.9727 345.8143 0310532 257.7629 117.3934 13.75254239640855"}}, "geometry": {"type": "Point", "coordinates": [-11.303267625767234, 14.743715743113826]}}, {"type": "Feature", "properties": {"norad_id": 35586, "name": "COSMOS 2251 DEB", "group": "cosmos-2251-debris", "lat": -1.819545555819467, "lon": -61.93199320161375, "alt_km": 1367.4218926849235, "timestamp": "2025-12-15T04:01:20.848345+00:00", "meta": {"OBJECT_NAME": "COSMOS 2251 DEB", "OBJECT_ID": "1993-036AMD", "EPOCH": "2025-12-09T15:43:44.050080", "MEAN_MOTION": 13.52082947, "ECCENTRICITY": 0.0404687, "INCLINATION": 74.02, "RA_OF_ASC_NODE": 307.4172, "ARG_OF_PERICENTER": 183.4058, "MEAN_ANOMALY": 354.3417, "EPHEMERIS_TYPE": 0, "CLASSIFICATION_TYPE": "U", "NORAD_CAT_ID": 35586, "ELEMENT_SET_NO": 999, "REV_AT_EPOCH": 60340, "BSTAR": 0.00055296, "MEAN_MOTION_DOT": 5.88e-06, "MEAN_MOTION_DDOT": 0}, "tle": {"line1": "1 35586U 93036AMD 25343.65537095  .00000588  00000+0  55296-3 0  9995", "line2": "2 35586  74.0200 307.4172 0404687 183.4058 354.3417 13.52082947603405"}}, "geometry": {"type": "Point", "coordinates": [-61.93199320161375, -1.819545555819467]}}, {"type": "Feature", "properties": {"norad_id": 35587, "name": "COSMOS 2251 DEB", "group": "cosmos-2251-debris", "lat": -8.817802813529713, "lon": -123.7508687744223, "alt_km": 614.7117900271487, "timestamp": "2025-12-15T04:01:20.848356+00:00", "meta": {"OBJECT_NAME": "COSMOS 2251 DEB", "OBJECT_ID": "1993-036AME", "EPOCH": "2025-12-12T21:18:47.401632", "MEAN_MOTION": 14.71521652, "ECCENTRICITY": 0.01026064, "INCLINATION": 74.0049, "RA_OF_ASC_NODE": 58.1365, "ARG_OF_PERICENTER": 245.7643, "MEAN_ANOMALY": 113.2781, "EPHEMERIS_TYPE": 0, "CLASSIFICATION_TYPE": "U", "NORAD_CAT_ID": 35587, "ELEMENT_SET_NO": 999, "REV_AT_EPOCH": 66348, "BSTAR": 0.00043835007, "MEAN_MOTION_DOT": 2.92e-05, "MEAN_MOTION_DDOT": 0}, "tle": {"line1": "1 35587U 93036AME 25346.88804863  .00002920  00000+0  43835-3 0  9992", "line2": "2 35587  74.0049  58.1365 0102606 245.7643 113.2781 14.71521652663482"}}, "geometry": {"type": "Point", "coordinates": [-123.7508687744223, -8.817802813529713]}}, {"type": "Feature", "properties": {"norad_id": 35593, "name": "COSMOS 2251 DEB", "group": "cosmos-2251-debris", "lat": -71.03090294316114, "lon": -132.02277363799814, "alt_km": 738.8150229574048, "timestamp": "2025-12-15T04:01:20.848366+00:00", "meta": {"OBJECT_NAME": "COSMOS 2251 DEB", "OBJECT_ID": "1993-036AML", "EPOCH": "2025-12-13T13:39:11.240640", "MEAN_MOTION": 14.25601821, "ECCENTRICITY": 0.0105204, "INCLINATION": 74.0858, "RA_OF_ASC_NODE": 286.9573, "ARG_OF_PERICENTER": 293.2904, "MEAN_ANOMALY": 65.7198, "EPHEMERIS_TYPE": 0, "CLASSIFICATION_TYPE": "U", "NORAD_CAT_ID": 35593, "ELEMENT_SET_NO": 999, "REV_AT_EPOCH": 85077, "BSTAR": 0.0011605739, "MEAN_MOTION_DOT": 2.887e-05, "MEAN_MOTION_DDOT": 0}, "tle": {"line1": "1 35593U 93036AML 25347.56888010  .00002887  00000+0  11606-2 0  9993", "line2": "2 35593  74.0858 286.9573 0105204 293.2904  65.7198 14.25601821850773"}}, "geometry": {"type": "Point", "coordinates": [-132.02277363799814, -71.03090294316114]}}]}